[{"OBJECT_NAME":"CINEMA","OBJECT_ID":"2012-048G","EPOCH":"2026-03-09T23:21:38.910528","MEAN_MOTION":15.41758997,"ECCENTRICITY":0.00644529,"INCLINATION":64.645,"RA_OF_ASC_NODE":61.8658,"ARG_OF_PERICENTER":204.5071,"MEAN_ANOMALY":155.2999,"EPHEMERIS_TYPE":0,"CLASSIFICATION_TYPE":"U","NORAD_CAT_ID":38764,"ELEMENT_SET_NO":999,"REV_AT_EPOCH":10191,"BSTAR":0.00076174658,"MEAN_MOTION_DOT":0.0003483,"MEAN_MOTION_DDOT":0},{"OBJECT_NAME":"STARLINK-36424","OBJECT_ID":"2026-005R","EPOCH":"2026-03-09T18:54:13.361760","MEAN_MOTION":15.28420197,"ECCENTRICITY":0.00029627,"INCLINATION":43.0032,"RA_OF_ASC_NODE":237.2444,"ARG_OF_PERICENTER":280.8187,"MEAN_ANOMALY":79.2331,"EPHEMERIS_TYPE":0,"CLASSIFICATION_TYPE":"U","NORAD_CAT_ID":67419,"ELEMENT_SET_NO":999,"REV_AT_EPOCH":871,"BSTAR":0.0011932429,"MEAN_MOTION_DOT":0.00033581,"MEAN_MOTION_DDOT":0}]
